ONEWEB-0228             
1 48780U 21045P   24240.43777244 -.00000058  00000+0 -18876-3 0  9996
2 48780  87.9055  30.2627 0001631  96.2326 263.8990 13.15547291157718
